0 LANDSAT 4
1 13367U 82072A   13282.16110262  .00002542  00000-0  16791-3 0  4618
2 13367 098.2486 322.0704 0016950 087.6143 309.7969 15.08336829681358
0 LANDSAT 4
1 13367U 82072A   13283.70559663  .00003236  00000-0  21245-3 0  4623
2 13367 098.2488 323.7277 0016909 082.0811 056.7758 15.08343320681582
0 LANDSAT 4
1 13367U 82072A   13286.14520517  .00002909  00000-0  19141-3 0  4640
2 13367 098.2491 326.3461 0016958 074.4648 343.4003 15.08357293681951
0 LANDSAT 4
1 13367U 82072A   13287.34047887  .00003176  00000-0  20851-3 0  4655
2 13367 098.2489 327.6293 0017004 070.9025 353.3988 15.08362900682132
0 LANDSAT 4
1 13367U 82072A   13288.61071428  .00003743  00000-0  24475-3 0  4661
2 13367 098.2485 328.9929 0016988 067.1680 050.4008 15.08376083682329
0 LANDSAT 4
1 13367U 82072A   13289.80559256  .00003354  00000-0  21980-3 0  4670
2 13367 098.2478 330.2754 0016892 063.4768 058.4609 15.08383430682502
0 LANDSAT 4
1 13367U 82072A   13291.18946632  .00003098  00000-0  20333-3 0  4689
2 13367 098.2474 331.7604 0016922 059.0354 012.9532 15.08390523682718
0 LANDSAT 4
1 13367U 82072A   13292.79327949  .00002826  00000-0  18590-3 0  4692
2 13367 098.2462 333.4818 0016619 053.8821 081.7815 15.08398543682959
0 LANDSAT 4
1 13367U 82072A   13294.17492006  .00003618  00000-0  23665-3 0  4704
2 13367 098.2459 334.9644 0016469 049.1599 024.5147 15.08402544683165
0 LANDSAT 4
1 13367U 82072A   13295.51332444  .00004540  00000-0  29564-3 0  4712
2 13367 098.2461 336.4004 0016327 044.6576 092.4159 15.08408862683361
